{
  "norad_id": 58233,
  "name": "STARLINK-30777",
  "history": [
    {
      "epoch": "2026-03-28T14:33:31.044384",
      "apogee_km": 485.7779968286668,
      "perigee_km": 485.2110608643843,
      "latitude_deg": -30.786738663477557,
      "longitude_deg": 61.534493759972975,
      "semi_major_axis_km": 6863.631528846526,
      "eccentricity": 4.13e-05,
      "inclination_deg": 42.9958,
      "raan_deg": 178.737,
      "arg_perigee_deg": 187.2817,
      "mean_anomaly_deg": 172.8028,
      "mean_motion_rev_day": 15.26763684
    }
  ]
}